latitude,longitude,altitude,geometry,name,address1,address2,city,state,zip
41.679151,-69.956011,,Point,The Artful Hand,459 Main Street,,Chatham,MA,2633
42.173731,-70.88346,,Point,SAHAGIAN JEWELERS,22 WASHINGTON ST,ROUTE 53,NORWELL,MA,2061
42.357084,-71.059387,,Point,BARMAKIAN BROTHERS,333 WASHINGTON STREET,7TH FLOOR,BOSTON,MA,2108
42.154908,-71.20164,,Point,KEYSTONE JEWELERS,90 PROVIDENCE HIGHWAY,WALPOLE MALL,EAST WALPOLE,MA,2032
42.105124,-76.809139,,Point,RAY JEWELERS,1100 CLEMENS CENTER PRKY,WEGEMANS PLAZA,ELMIRA,NY,14901
41.295128,-73.110857,,Point,MARKS OF DESIGN,389 BRIDGEPORT AVENUE,SUITE 103,SHELTON,CT,6484
41.31455,-73.216542,,Point,GACH JEWELERS,470 MUNROE TURNPIKE,ROUTE 111,MONROE,CT,6468
43.319276,-70.974578,,Point,BEA'S JEWELERS,5 MILTON ROAD,BOX 11   LILAC MALL,ROCHESTER,NH,3867
44.198096,-72.502716,,Point,RICHARD J WOBBY JEWELERS,124 NORTH MAIN STREET,SUITE 1,BARRE,VT,5641
42.016725,-71.479255,,Point,PIETTE JEWELERS,1500 DIAMOND HILL ROAD,WALNUT HILL PLAZA,WOONSOCKET,RI,2895
42.805535,-71.544808,,Point,A & E DIAMONDS & GOLD,707 OLD MILFORD ROAD,PENNICHUCK SQUARE,MERRIMACK,NH,3054
41.760614,-72.740957,,Point,BECKER'S JEWELRY,SUITE 203,65 LA SALLE ROAD,WEST HARTFORD,CT,6107
44.799427,-68.767569,,Point,QUALITY JEWELERS,25 WASHINGTON STREET,PENOBSCOT PLAZA,BANGOR,ME,4401
42.357084,-71.059387,,Point,DOLABANY JEWELERS,333 WASHINGTON ST. STE 333,C/O DOLABANY CO.,BOSTON,MA,2108
42.174339,-72.575865,,Point,SAYEGH JEWELERS,601 MEMORIAL DRIVE,UNIT F,CHICOPEE,MA,1020
41.930049,-72.616826,,Point,SWEDE'S JEWELERS,98 BRIDGE STREET,P.O. BOX 598,EAST WINDSOR,CT,6088
41.617176,-70.489984,,Point,SACHS JEWELERS,3 CENTRAL SQUARE,MASHPEE COMMONS,MASHPEE,MA,2649
41.720796,-72.621131,,Point,LUX BOND & GREEN,140 Glastonbury Blvd,Somerset Sq,Glastonbury,CT,6033
41.80687,-72.5459,,Point,HANNOUSH JEWELERS,194 BUCKLAND HILLS DRIVE,,MANCHESTER,CT,6042
42.469346,-73.2047,,Point,CROWN JEWELERS,ALLENDALE CENTER,5 CHESHIRE RD. STE 21,PITTSFIELD,MA,1201
43.939038,-69.979653,,Point,DAYS JEWELERS,49 TOPSHAM FAIR MALL ROAD,TOPSHAM FAIR MALL,TOPSHAM,ME,4086
44.079863,-70.196053,,Point,DAYS JEWELERS,SHAW'S PLAZA,600 CENTER ST.,AUBURN,ME,4210
44.342927,-69.787456,,Point,DAYS JEWELERS,4 STEPHEN KING DRIVE,SUITE 2,AUGUSTA,ME,4330
42.961367,-71.441862,,Point,DAYS JEWELERS,66 MARCH AVE.,T.J. MAX PLAZA,MANCHESTER,NH,3103
41.052996,-73.536959,,Point,SIDNEY THOMAS JEWELERS,100 GRAYROCK PLACE #G204,STAMFORD TOWN CENTER,STAMFORD,CT,6901
42.31886,-71.18027,,Point,SIDNEY THOMAS JEWELERS,ATRIUM MALL,300 BOYLSTON ST.,CHESTNUT HILL,MA,2167
41.828209,-71.420508,,Point,SIDNEY THOMAS JEWELERS,PROVIDENCE PLACE MALL,87 PROVIDENCE PLACE,PROVIDENCE,RI,2903
42.360612,-71.054838,,Point,BOSTON PEWTER CO.,1 SOUTH MARKET,FANEUIL HALL,BOSTON,MA,2109
42.587516,-70.884428,,Point,DESJARDINS JEWELERS,47 ENON ST,COMMODORE PLAZA,BEVERLY,MA,1915
42.555692,-71.179388,,Point,FLAHERTY ROBERT,248 MAIN ST,WILMINGTON PLAZA,WILMINGTON,MA,1887
42.274735,-71.746571,,Point,SACHS JEWELERS,180 BOSTON TURNPIKE,RT 9 EAST,SHREWSBURY,MA,1545
43.098097,-70.804191,,Point,THE JEWELERS WORKBENCH,50 FOX RUN RD,FOX RUN MALL,NEWINGTON,NH,3801
42.892174,-71.324379,,Point,Princess Jewelers,55 Crystal Ave.,Suite 5,Derry,NH,3038
41.372941,-71.956158,,Point,R A Georgetti,27 Coogan Blvd.,Bldg 7-A,Mystic,CT,6355
41.970873,-71.314331,,Point,Tower Square Jewelers,93 Commonwealth Ave.,#1,North Attleboro,MA,2760
42.541204,-70.940841,,Point,Blue River Diamond,210 Andover St.,Suite 200,Peabody,MA,1960
41.693492,-70.152154,,Point,L.A.M. GOLDSMITHS,516 ROUTE 134,PATRIOT SQUARE PLAZA,S DENNIS,MA,2660
41.75453,-71.212911,,Point,Plante Jewelers,207 Swansea Mall Dr.,#160,Swansea,MA,2777
41.703081,-71.408721,,Point,Kucinski Jewelers,2362 West Shore Rd.,Suite. F,Warwick,RI,2889
41.282359,-72.594207,,Point,Paul Lirot Jewelry,73 Wall St.,,Madison,CT,6443
42.356227,-71.059815,,Point,HEFEZ & SONS,387 WASHINGTON ST,#701,BOSTON,MA,2108
42.764799,-71.215586,,Point,NAZARIAN JEWELERS,203 SOUTH BROADWAY,STE 2,SALEM,NH,3079
42.524307,-71.103015,,Point,SIMMS JEWELERS,648 MAIN ST,,READING,MA,1867
41.264395,-73.130713,,Point,A.J. KLEIN JEWELERS,866 BRIDGEPORT AVE.,,SHELTON,CT,6484
41.771511,-72.642717,,Point,J H ANDERSON JEWELERS,1015 MAIN STREEY,,E HARTFORD,CT,6128
42.228029,-71.523491,,Point,HOPKINTON JEWELERS,1 CLAFLIN COMMONS,,HOPKINTON,MA,1748
43.914884,-69.964547,,Point,KEITH FIELD GOLDSMITH,147 MAINE STREET,,BRUNSWICK,ME,4011
39.911299,-75.05103,,Point,MARGARET CEDRONE ARTISAN JEWELERS,121 HADDON AVENUE,,WESTMONT,NJ,8108
42.853147,-72.558247,,Point,RENAISSANCE JEWELERS,151 MAIN STREET,,BRATTLEBORO,VT,5301
41.272674,-72.949824,,Point,LESLIE'S,523 CAMPBELL AVE.,,WEST HAVEN,CT,6516
42.227356,-71.523895,,Point,STEPHANIE G,77 MAIN STREET,,HOPKINTON,MA,1748
42.277421,-71.852509,,Point,TATNUCK JEWELERS,617 MILL STREET,,WORCESTER,MA,1602
42.649184,-71.66082,,Point,TOWNSEND FINE JEWELRY,18 MAIN STREET,,TOWNSEND,MA,1469
41.871373,-72.802144,,Point,BILL SELIG JEWELERS,712 HOPMEADOW STREET,,SIMSBURY,CT,6070
42.104495,-70.801636,,Point,DJS GOLDMINE FINE JEWELRY,24 SCHOOSETT STREET #A,,PEMBROKE,MA,2359
44.697573,-73.478279,,Point,LIGHTS JEWELERS,9 PLATTSBURGH PLZ,,PLATTSBURGH,NY,12901
41.354729,-71.971156,,Point,N L SHAW & CO,50 W MAIN ST,,MYSTIC,CT,6355
42.23161,-71.176932,,Point,DIAMOND GUILD,234 LEGACY PLACE,,DEDHAM,MA,2026
42.416146,-71.684753,,Point,DUVARNEY JEWELERS,7 HIGH STREET,,CLINTON,MA,1510
42.258367,-71.040783,,Point,GRONO & CHRISTIE INC.,536 ADAMS ST.,,EAST MILTON,MA,2186
43.204602,-71.535451,,Point,A JEWELERS WORKSHOP,10 SOUTH MAIN STREET,,CONCORD,NH,3301
42.088408,-72.544636,,Point,SPRINGFIELD JEWELRY & DIAMOND EXCHANGE,883 SUMNER AVENUE,,SPRINGFIELD,MA,1108
41.378456,-71.830008,,Point,NIGRELLI'S JEWELRY,27 HIGH STREET,,WESTERLY,RI,2891
42.464178,-70.950704,,Point,LINDA'S JEWELERS,2 MARKET STREET,,LYNN,MA,1901
42.076167,-72.03684,,Point,MORIN JEWELERS,409 MAIN STREET,,SOUTHBRIDGE,MA,1550
41.753962,-71.214147,,Point,MULLENS BROS. JEWELERS,167 SWANSEA MALL DR.,,SWANSEA,MA,2777
43.174951,-70.612052,,Point,BILL & BOBS,4 RAILROAD AVENUE,,YORK BEACH,ME,3909
41.998827,-71.550729,,Point,CLASSIC VILLAGE JEWELERS,638 GREAT ROAD,,N SMITHFIELD,RI,2896
43.632958,-88.730699,,Point,GYSBER'S  JEWELRY,305 EAST MAIN STREET,,WAUPUN,WI,53963
43.440405,-70.777565,,Point,TAPESTRY,879 MAIN STREET,,SANFORD,ME,4073
42.306058,-71.395101,,Point,BARMAKIAN JEWELERS,496 COCHIYUATE ROAD,,FRAMINGHAM,MA,1701
42.357084,-71.059387,,Point,FRANK DE PRISCO JEWELERS,333 WASHINGTON ST. RM #40,,BOSTON,MA,2108
41.627501,-70.384147,,Point,FRANK DE PRISCO JEWELERS,32 WIANNO AVENUE,,OSTERVILLE,MA,2655
43.036064,-71.166,,Point,JAMBS JEWELRY,17 FREETOWN ROAD,,RAYMOND,NH,3077
42.946264,-76.429383,,Point,SKANEATELES JEWELRY,15 JORDAN ST.,,SKANEATELES,NY,13152
43.030076,-76.011877,,Point,SKANEATELES JEWELRY,106 BROOKLEA DR.,,FAYETTEVILLE,NY,13066
44.481446,-73.212017,,Point,SKANEATELES JEWELRY,28 CLARKE ST.,,BURLINGTON,VT,5401
42.58826,-72.601962,,Point,CLEARY JEWELERS,248 MAIN ST.,,GREENFIELD,MA,1301
42.17573,-70.888035,,Point,HINGHAM JEWELERS,35 WHITING ST.,,HINGHAM,MA,2043
42.150393,-72.472706,,Point,QUINN'S FINE JEWELRY,2040 BOSTON ROAD,,WILBRAHAM,MA,1095
42.26466,-72.666798,,Point,DEGRANDPRE JEWELERS,54 COTTAGE ST.,,EASTHAMPTON,MA,1027
42.283503,-71.743133,,Point,PURL-LEEZ,120 OLD MILL ROAD,,SHREWSBURY,MA,1545
43.197897,-70.874263,,Point,A E ALIE & SON,460 CENTRAL AVE,,DOVER,NH,3820
41.719542,-71.485452,,Point,HANNOUSH JEWELERS,685 BALD HILL ROAD,,WARWICK,RI,2886
41.442652,-72.909744,,Point,RUMANOFF'S,4133 WHITNEY AVE.,,HAMDEN,CT,6518
41.696463,-72.658348,,Point,STERLING JEWELERS,965 SILAS DEANE HWY,,WETHERSFIELD,CT,6109
41.865368,-71.445438,,Point,ANTHONY'S JEWELERS,1525 MINERAL SPRING AVENUE,,NORTH PROVIDENCE,RI,2904
42.141281,-71.52001,,Point,NATHANS JEWELRY & GIFTS STORE,157 MAIN STREET,,MILFORD,MA,1757
42.416373,-71.156301,,Point,SWANSON JEWELRY,717 MASS AVE.,,ARLINGTON,MA,2474
43.056585,-76.06615,,Point,EGON EHRLINSPIEL,5914 BRIDGE STREET,,EAST SYRACUSE,NY,13057
41.663872,-72.864148,,Point,DBK FAMILY JEWELERS,165 EAST STREET / RT 10,,PLAINVILLE,CT,6062
42.482354,-71.213675,,Point,ASA JEWELERS,75 MIDDLESEX TURNPIKE,,BURLINGTON,MA,1803
42.360071,-71.882911,,Point,JEFFERSON SQUARE JEWELERS,1655 MAIN STREET,,JEFFERSON,MA,1522
44.1102,-70.225701,,Point,REPUBLIC JEWELRY & COIN,212 CENTER STREET,,AUBURN,ME,4210
42.280703,-71.631041,,Point,TOWNE & COUNTRY JEWELERS,164 MILK ST. #5,,WESTBOROUGH,MA,1581
42.679504,-70.838172,,Point,TETREAULT JEWELERS,24 MARKET STREET,,IPSWICH,MA,1938
41.870925,-72.464339,,Point,THE GOLD & DIAMOND EXCHANGE,8 WEST ROAD,,ELLINGTON,CT,6029
42.123982,-72.627012,,Point,STEVENS JEWELERS,1501 ELM STREET,,W SPRINGFIELD,MA,1089
43.37253,-72.33879,,Point,JOZACH JEWELERS,1 PLEASANT STREET,,CLAREMONT,NH,3743
41.966994,-73.99909,,Point,KINGSTON JEWELRY,207 BOICES LANE,,KINGSTON,NY,12401
42.664043,-71.321629,,Point,ROBERTS JEWELERS,1086 LAKEVIEW AVE,,DRACUT,MA,1826
40.044317,-75.388148,,Point,WAYNE JEWELERS,101 WEST LANCASTER AVE.,,WAYNE,PA,19087
42.698302,-73.110203,,Point,DI LEGO JEWELRY,16 ASHLAND ST.,,NORTH ADAMS,MA,1247
42.093805,-71.050055,,Point,WARREN JEWELERS,165 WESTGATE DRIVE,,BROCKTON,MA,2301
43.205037,-71.535569,,Point,SPEER'S,24 NO. MAIN ST.,,CONCORD,NH,3301
42.346766,-71.550488,,Point,JOY-DEN JEWELERS,209 MAIN ST.,,MARLBOROUGH,MA,1752
42.004559,-71.324702,,Point,LE DOR JEWELRY,44 WASHINGTON STREET,,PLAINVILLE,MA,2762
42.192494,-71.201636,,Point,CHELALA JEWELRY & GIFTS,696 WASHINGTON STREET,,NORWOOD,MA,2062
42.524534,-71.758981,,Point,JOSEPH JEWELERS,28 CENTRAL STREET RT 12,,LEOMINSTER,MA,1453
42.173626,-70.952056,,Point,SNYDER JEWELERS,89 PLEASANT STREET,,WEYMOUTH,MA,2190
43.196172,-70.87449,,Point,JEWELRY CREATIONS,388 CENTRAL AVENUE,,DOVER,NH,3820
41.372941,-71.956158,,Point,ANGEL HAVEN,27 COOGAN BLVD.  #2A,,MYSTIC,CT,6355
42.088009,-71.423508,,Point,TERRAZZA,210 FRANKLIN VILLAGE DRIVE,,FRANKLIN,MA,2038
41.768779,-72.520402,,Point,BRAY JEWELERS,971 MAIN ST.,,MANCHESTER,CT,6040
42.659418,-70.616312,,Point,THE PEWTER SHOP,16 BEARSKIN NECK,,ROCKPORT,MA,1966
42.087658,-71.411798,,Point,EDWIN'S GIFTS,341 W. CENTRAL STREET,,FRANKLIN,MA,2038
42.575356,-71.996893,,Point,TANGUAY JEWELERS,19 CONNORS STREET,,GARDNER,MA,1440
44.469566,-71.181427,,Point,HALL OF GREETINGS,107 MAIN STREET,,BERLIN,NH,3570
41.571392,-73.100237,,Point,DAVID JEWELERS,750 STRAITS TURNPIKE  STE 4,,WATERTOWN,CT,6795
41.760053,-72.744251,,Point,DEROBERTIS JEWELERS,52 LASALLE RD,,W HARTFORD,CT,6107
41.666617,-70.156674,,Point,A TOUCH OF GLASS,711 MAIN STREET,,WEST DENNIS,MA,2670
41.561926,-72.650111,,Point,MALLOVES,404 MAIN ST.,,MIDDLETOWN,CT,6457
41.377891,-71.830599,,Point,WESTERLY JEWELRY CO.,8 HIGH STREET,,WESTERLY,RI,2891
41.66753,-70.077652,,Point,SATIVA,517 ROUTE 28,,HARWICH PORT,MA,2646
41.310541,-71.857376,,Point,PERFECT PINEAPPLE,60 BAY STREET,,WATCH HILL,RI,2891
42.055501,-72.554481,,Point,MICHAEL SZWED JEWELERS,807 WILLIAMS ST.,,LONGMEADOW,MA,1106
42.465224,-73.203363,,Point,M. EDWARD JEWELERS,660 MERRILL ROAD,,PITTSFIELD,MA,1201
42.304623,-73.249095,,Point,ZABIAN JEWELERS,15 MAIN STREET,,LEE,MA,1238
43.204967,-71.535564,,Point,CAPITOL CRAFTSMAN,16 NORTH MAIN ST.,,CONCORD,NH,3301
41.968967,-72.79602,,Point,OLD MILL POND VILLAGE,383 SALMON BROOK ST,,GRANBY,CT,6035
43.238285,-70.593724,,Point,THE WHISTLING OYSTER,116-2 PERKINS COVE ROAD,,OGUNQUIT,ME,3907
42.063565,-71.248972,,Point,CINDI'S DIAMOND & JEWELRY,40 CENTRAL ST.,,FOXBORO,MA,2035
42.260645,-72.241764,,Point,DIOGUARDI JEWELERS,95 MAIN STREET,,WARE,MA,1082
42.207097,-71.152403,,Point,DOLABANY JEWELERS,145 UNIVERSITY AVENUE,,WESTWOOD,MA,2090
41.902642,-71.092851,,Point,PACHECOS GOLD & GEMS,22 TAUNTON GREEN,,TAUNTON,MA,2780
42.70385,-71.440233,,Point,BARMAKIAN FILS,300 DANIEL WEBSTER HWY,,NASHUA,NH,3060
42.28526,-71.806266,,Point,SHARFMANS,19 GLENNIE ST. SUITE B,,WORCESTER,MA,1605
42.118725,-76.018476,,Point,CONTI JEWELERS,532 HOOPER ROAD,,ENDWELL,NY,13760
42.19034,-72.577024,,Point,FURNARI JEWELERS,1189 MEMORIAL DRIVE,,CHICOPEE,MA,1020
42.885177,-73.773517,,Point,WIT'S END GIFTIQUE,PARKWOOD PLAZA  RTE 9,,CLIFTON PARK,NY,12065
41.741905,-71.437734,,Point,BAXTER'S FINE JEWELRY,200 JEFFERSON BLVD.,,WARWICK,RI,2888
42.50576,-71.132783,,Point,COOPER JEWELERS INC.,300 MISHAWUM ROAD,,WOBURN,MA,1801
42.058333,-71.066955,,Point,ROMM & CO,1280 BELMONT STREET,,BROCKTON,MA,2301
42.711127,-73.20429,,Point,AMYS COTTAGE OF WILLIAMSTOWN,39 SPRING STREET,,WILLIAMSTOWN,MA,1267
42.062847,-72.513517,,Point,SAYEGH JEWELERS,60 SHAKER ROAD,,EAST LONGMEADOW,MA,1028
42.450616,-73.253776,,Point,R J STOHR DIAMOND & FINE JEWELRY,137 NORTH STREET,,PITTSFIELD,MA,1201
41.541329,-73.000819,,Point,MARIES JEWELRY,2444 E MAIN STREET,,WATERBURY,CT,6705
42.16763,-72.641357,,Point,SHIRIN JEWELERS,50 HOLYOKE STREET #G304,,HOLYOKE,MA,1040
41.598275,-71.250618,,Point,THE PORTSMOUTH SHOP,2511 EAST MAIN ROAD,,PORTSMOUTH,RI,2871
41.987688,-70.712735,,Point,ECO CHIC BOUTIQUE,117 MAIN STREET,,KINGSTON,MA,2364
41.962431,-70.669219,,Point,ECO CHIC BOUTIQUE,170 WATER STREET,,PLYMOUTH,MA,2360
41.819022,-71.376444,,Point,GOLD AND CARAT EXCHANGE,17 GROVE AVENUE  #14137,,EAST PROVIDENCE,RI,2914
41.649571,-70.290615,,Point,BUMBALINA,606 MAIN STREET,,HYANNIS,MA,2601
42.81088,-70.869624,,Point,KEEPSAKES,1 STATE STREET,,NEWBURYPORT,MA,1950
41.760177,-72.74412,,Point,LUX BOND & GREEN,46 Lasalle Rd,,WEST HARTFORD,CT,6107
41.143216,-73.361358,,Point,LUX BOND & GREEN,136 MAIN STREET,,WESTPORT,CT,6880
42.351262,-71.072467,,Point,LUX BOND & GREEN,416 BOYLESTON STREET,,BOSTON,MA,2116
42.295982,-71.296191,,Point,LUX BOND & GREEN,60 CENTRAL STREET,,WELLESLEY,MA,2482
42.178135,-71.206163,,Point,KEEGAN'S JEWELERS,1135 WASHINGTON STREET,,NORWOOD,MA,2062
41.559381,-70.597048,,Point,KEEGAN'S JEWELERS,205 WORCESTER CT.,,FALMOUTH,MA,2540
41.997692,-72.579462,,Point,HANNOUSH JEWELERS,118 ELM STREET,,ENFIELD,CT,6082
41.389834,-70.513775,,Point,CLAUDIA,51 MAIN STREET,,EDGARTOWN,MA,2539
41.753561,-72.875339,,Point,FARMINGTON JEWELERS,1680 FARMINGTON AVE.,,UNIONVILLE,CT,6085
41.962431,-70.669219,,Point,DAISY RILEY CLOTHING & ACCESSORIES,170 WATER STREET,,PLYMOUTH,MA,2360
42.112002,-72.72323,,Point,RICHARD'S JEWELERS,461 EAST MAIN ST.,,WESTFIELD,MA,1085
42.965705,-70.834246,,Point,QUICKSILVER FINE JEWELRY,29 LAFAYETTE ROAD,,NORTH HAMPTON,NH,3862
42.356227,-71.059815,,Point,ALFRED F. DESCENZA & SON,387 WASHINGTON STREET,,BOSTON,MA,2108
42.297502,-71.396973,,Point,ALFRED F. DESCENZA & SON,92 WORCESTER ROAD,,FRAMINGHAM,MA,1702
42.179619,-70.910607,,Point,ALFRED F. DESCENZA & SON,114 DERBY ST.,,HINGHAM,MA,2043
42.542548,-70.940702,,Point,ALFRED F. DESCENZA & SON,161 ANDOVER STREET,,PEABODY,MA,1960
41.680633,-69.957895,,Point,CHATHAM JEWELERS,532 MAIN ST,,CHATHAM,MA,2633
42.931903,-72.278616,,Point,MON AMIE FINE JEWELRY,87 MAIN STREET,,KEENE,NH,3431
41.455236,-70.602617,,Point,C.B. STARK JEWELERS,53A MAIN ST.,,VINEYARD HAVEN,MA,2568
44.549844,-69.630145,,Point,DAYS JEWELERS,88 MAIN STREET. STE. 101,,WATERVILLE,ME,4901
44.840122,-68.746569,,Point,DAYS JEWELERS,930 STILLWATER,,BANGOR,ME,4401
43.634363,-70.329526,,Point,DAYS JEWELERS,415 PHILBROOK,,SOUTH PORTLAND,ME,4106
41.788301,-69.991652,,Point,STEPHEN GALLANT,34 MAIN STREET,,ORLEANS,MA,2653
42.483597,-71.219948,,Point,LONG'S FINE JEWELERS,60-A SOUTH AVENUE,,BURLINGTON,MA,1803
41.722099,-72.762714,,Point,SIDNEY THOMAS JEWELERS,64 WESTFARMS MALL,,FARMINGTON,CT,6032
40.917757,-74.076522,,Point,SIDNEY THOMAS JEWELERS,2105 GARDEN STATE PLAZA,,PARAMUS,NJ,7652
40.740874,-74.364246,,Point,SIDNEY THOMAS JEWELERS,1200 MORRIS TURNPIKE,,SHORT HILLS,NJ,7078
41.727498,-71.475668,,Point,ROSS-SIMONS,136 ROUTE 5,,WARWICK,RI,2886
41.686057,-69.968108,,Point,EAST WIND SILVER COMPANY,878 MAIN STREET,,CHATHAM,MA,2633
41.749684,-70.628139,,Point,A.J. MARKS JEWELERS,3203 CRANBERRY HGWY,,E WAREHAM,MA,2538
42.295996,-71.292875,,Point,ANDERSONS JEWELERS,21 GROVE ST,,WELLESLEY,MA,2482
42.881306,-70.868062,,Point,ARAM ZEMANIAN,255 LAFAYETTE RD,,SEABROOK,NH,3874
41.87399,-72.688194,,Point,ASHLEY'S JEWELERS,555 DAY HILL RD,,WINDSOR,CT,6095
41.635136,-70.922529,,Point,BEJEWELED,26 CENTRE ST,,NEW BEDFORD,MA,2740
43.001697,-71.464861,,Point,BELLMAN JEWELERS,1650 ELM ST,,MANCHESTER,NH,3104
41.406726,-72.844763,,Point,CAROL'S CREATIONS,344 WASHINGTON AVE,,NORTH HAVEN,CT,6473
42.368786,-71.217674,,Point,DESCAR JEWELRY DESIGN,49 RIVER ST,,WALTHAM,MA,2453
41.682342,-69.959778,,Point,DOLLI LLAMA,612 MAIN ST,,CHATHAM,MA,2633
42.093893,-72.069708,,Point,GARIERI JEWELERS,139 MAIN ST,,STURBRIDGE,MA,1566
42.081592,-71.384061,,Point,JOSEPH'S FINE JEWELRY,287 EAST CENTRAL ST,,FRANKLIN,MA,2038
42.273914,-71.02491,,Point,JOYCE & GENDREAU,52 BILLINGS RD,,QUINCY,MA,2171
41.815672,-72.86544,,Point,KEVIN EDWARDS JEWELERS,395 W MAIN ST,,AVON,CT,6001
42.219839,-70.799386,,Point,KING JEWELERS,812 RT 3A,,COHASSET,MA,2025
42.81088,-70.869624,,Point,M.K. BENATTI JEWELERS,1 STATE STREET,,NEWBURYPORT,MA,1950
42.459098,-71.06271,,Point,MORGAN JEWELERS,695 MAIN ST,,MELROSE,MA,2176
42.337303,-71.04334,,Point,MURPHY'S JEWELRY,430 WEST 1ST STREET,,S BOSTON,MA,2127
42.176055,-70.889056,,Point,N.E. JEWELRY,43 WHITING ST,,HINGHAM,MA,2043
42.822764,-71.103909,,Point,NASER JEWELERS,37 PLAISTOW ROAD,,PLAISTOW,NH,3865
41.779457,-69.960791,,Point,OCEANA,P.O.BOX 1550,,ORLEANS,MA,2653
41.628631,-70.386006,,Point,OYSTER ISLAND EMPORIUM,846 MAIN ST,,OSTERVILLE,MA,2655
42.459055,-71.069253,,Point,PERELLA JEWELERS,136 W EMERSON ST,,MELROSE,MA,2176
42.319834,-72.629762,,Point,SILVERSCAPE DESIGNS,1 KING ST,,NORTHAMPTON,MA,1060
42.241465,-70.888736,,Point,THE WHITNEY GORDON'S,39 MAIN ST,,HINGHAM,MA,2043
41.55224,-70.615623,,Point,TOUCHE,234 MAIN ST,,FALMOUTH,MA,2540
42.084099,-71.398696,,Point,VALLEE'S,68 MAIN ST,,FRANKLIN,MA,2038
42.658584,-70.617377,,Point,VILLAGE SILVERSMITH,27 DOCK SQ,,ROCKPORT,MA,1966
41.680293,-69.958081,,Point,YANKEE INGENUITY,525 MAIN ST,,CHATHAM,MA,2633
42.086657,-72.620892,,Point,Coopers Gifts,161 Main St.,,Agawam,MA,1001
42.856321,-70.931111,,Point,Starbird Jewelers,80 Main St.,,Amesbury,MA,1913
41.943692,-71.285495,,Point,Attleboro Jewelers,35 County St.,,Attleboro,MA,2703
42.486164,-71.261582,,Point,Bedford Jewelers,323 Great Rd.,,Bedford,MA,1730
41.277856,-72.81769,,Point,Branford Jewelers,567 Main St.,,Branford,CT,6405
41.9913,-70.974838,,Point,Chateau Jewelers,51 Broad St.,,Bridgewater,MA,2324
41.669934,-71.276496,,Point,Carons Jewelers,437 Hope St.,,Bristol,RI,2890
42.13933,-71.149723,,Point,Roberts Jewelry,10B Washington St.,,Canton,MA,2021
41.921356,-70.804795,,Point,Carver Jewelers,96 North Main St.,,Carver,MA,2330
42.602537,-71.3474,,Point,Charles Frederick Jewelers,18 Alpine Lane,,Chelmsford,MA,1824
41.273233,-72.506046,,Point,Christo Jewelers,215 East Main St.,,Clinton,CT,6413
42.220916,-70.800466,,Point,Cohasset Jewelers,790A Cushing Hwy,,Cohasset,MA,2025
43.232964,-71.511537,,Point,Jewelers Workbench,12 Dominique Rd.,,Concord,NH,3101
41.687837,-71.561116,,Point,The Bead Sting,57 Sandy Bottom Rd.,,Coventry,RI,2816
41.983574,-71.46769,,Point,With Heart and Soul,3751 Mendon Rd.,,Cumberland,RI,2864
41.755746,-70.640965,,Point,Gold World,3112 Cranberry Highway,,E. Wareham,MA,2538
41.663386,-71.449994,,Point,Stencel Jewelers,40 Main St.,,East Greenwich,RI,2818
41.807376,-71.346531,,Point,MRT Jewelers,927 Warren Ave.,,East Providence,RI,2914
41.643728,-70.871037,,Point,Periwinkles,270 Huttleston Ave.,,Fairhaven,MA,2719
41.698655,-71.154098,,Point,J&J Jewelers,167 Borden St.,,Fall River,MA,2721
41.551908,-70.615944,,Point,Falmouth Jewelry Shop,225 Main St.,,Falmouth,MA,2541
42.298711,-71.395554,,Point,Stardust Jewelers,60 Worcester Rd.,,Framingham,MA,1702
41.711571,-72.60742,,Point,Baribault Jewelers,81 Rankin Rd.,,Glastonbury,CT,6033
41.713209,-72.607207,,Point,Silver Dahlia,63 Hebron Ave.,,Glastonbury,CT,6033
41.868146,-71.531685,,Point,Ephriam Doumato,19 Saunderston Rd.,,Greenville,RI,2828
42.941587,-70.837906,,Point,Cohen Jewelers,1 High St,,Hampton,NH,3842
42.146553,-70.840574,,Point,NASR Jewelers,1775 Washington St.,,Hanover,MA,2339
41.669631,-70.085337,,Point,Cape Life Gifts,337 Route 28,,Harwichport,MA,2646
41.667989,-70.074383,,Point,Cranberry Jewelers,554 Main St. Rte. 28,,Harwichport,MA,2646
42.222398,-72.641725,,Point,Brad Matthews,2225 N Hampton St.,,Holyoke,MA,1040
42.936519,-72.277968,,Point,Stoneman,82 Washington St.,,Keene,NH,3431
43.361282,-70.477673,,Point,Coastal Jewelers,28 Dock Square,,Kennebunkport,ME,4046
42.011966,-70.730135,,Point,Premier Jewelers,187 Summer St.,,Kingston,MA,2364
41.904386,-71.407531,,Point,Christian Jewelers,184 Front St.,,Lincoln,MA,2865
42.870649,-71.346902,,Point,Baldoria,5 Garden Lane,,Londonderry,NH,3053
41.279699,-72.595055,,Point,Silver Moon,769 Boston Post Rd.,,Madison,CT,6443
42.961805,-71.443507,,Point,John’s Hallmark,62 March Ave.,,Manchester,NH,3103
41.736367,-72.199573,,Point,Roy Jewelers,119 Storr Rd.,,Mansfiled Center,CT,6250
41.616797,-70.490596,,Point,Elfstone Silver and Gold,19 Central Sq.,,Mashpee,MA,2649
41.663838,-70.813807,,Point,Isabelle’s,33 County Rd,,Mattapoisett,MA,2738
42.418582,-71.111741,,Point,Rolands,70 High St.,,Medford,MA,2155
42.151796,-71.412643,,Point,Medway Jewelers,74 Main St.,,Medway,MA,2053
42.102844,-71.564003,,Point,Stardust Jewelers Mendon,12 Uxbridge Rd.,,Mendon,MA,1756
42.838055,-71.668586,,Point,John’s Hallmark,198 Elm St.,,Milford,NH,3055
45.656922,-68.709491,,Point,Melvin Ferland,234 Penobscot Ave.,,Millinocket,ME,4462
42.098374,-72.315157,,Point,Belanger’s,125 Main St.,,Monson,MA,1057
41.373554,-71.957251,,Point,Mystic Silver,27A Olde Mystic Village,,Mystic,CT,6355
42.698302,-73.110203,,Point,Dilego Jewelers,16 Ashland St.,,N. Adams,MA,1247
42.574004,-71.278549,,Point,Billerica Jewelers,306 Boston Neck Rd.,,N. Billerica,MA,1862
42.280666,-71.235866,,Point,Crosby Jewelers,1496 Highland Ave.,,Needham,MA,2192
41.666536,-70.928897,,Point,Folco Jewelers,1697 Acushnet Ave.,,New Bedford,MA,2746
41.488382,-71.314885,,Point,Jason and Co.,182 Thames St.,,Newport,RI,2840
41.9696,-71.333401,,Point,Facet Jewelers,153 East Washington St.,,North Attleboro,MA,2760
41.832323,-71.59015,,Point,Charming Treasures,178 Danielson Pike.,,North Scituate,RI,2857
41.797452,-69.985223,,Point,Cape Tradewinds,8 Canal Rd.,,Orleans,MA,2653
44.883289,-68.671846,,Point,Degrasse Jewelers,5 Mill St.,,Orono,MA,4473
41.63526,-70.38954,,Point,Silva Jewelers,1112 Main St.,,Osterville,MA,2655
41.871933,-71.354093,,Point,Ricards Jewelry,555 Newport Ave.,,Pawtucket,RI,2861
42.468424,-73.202925,,Point,Charland Jewelers,875 Dalton Ave.,,Pittsfield,MA,1201
41.954553,-70.710807,,Point,NASR Jewelers,61 Commerce Way,,Plymouth,MA,2360
41.957254,-70.665223,,Point,Stellor Jewelers,1 Court St.,,Plymouth,MA,2360
41.959714,-70.665003,,Point,3 Daughters Jewelry,108 Water St.,,Plymouth,MA,2360
42.050232,-70.187963,,Point,RC Hancrafted,241 Commercial St.,,Provincetown,MA,2657
42.524307,-71.103015,,Point,C. Simms Jewelers,648 Main St.,,Reading,MA,1867
42.688383,-70.945322,,Point,Gold Rush,174 Newbury Tpke.,,Rowley,MA,1969
42.201706,-71.006271,,Point,Caruso Jewelers,1000 Washington St.,,S Braintree,MA,2184
42.764799,-71.215586,,Point,Baldoria,203 South Broadway,,Salem,NH,3079
41.903971,-72.786404,,Point,Riches Jewelers,1402 Hopmeadow St.,,Simsbury,CT,6070
41.665162,-70.195293,,Point,Adrene Jewelers,1198 Route 28,,South Yarmouth,MA,2664
41.657764,-70.203035,,Point,Yarmouth Jewelers,1086 Main St. Rte 28,,South Yarmouth,MA,2664
41.713036,-70.204593,,Point,Cape Tradewinds,852 Main St./Rte. 28,,South Yarmouth,MA,2664
42.07584,-72.032951,,Point,Cormier Jewelers,42 Central St.,,Southbridge,MA,1550
42.243661,-71.994572,,Point,Cormier Jewelers,136 Main St.,,Spencer,MA,1562
41.767312,-71.26038,,Point,Tickle’s,2219 GAR Highway,,Swansea,MA,2777
41.928614,-71.088102,,Point,Perry Jewelers,400 Broadway,,Taunton,MA,2780
41.673842,-73.073219,,Point,Barberet Jewelers,79 Main St.,,Thomaston,CT,6787
41.829851,-72.482095,,Point,Dunbar Jewelers,435 Hartford Tpke.,,Vernon,CT,6066
41.830512,-72.476041,,Point,Friedrich Jewelers,520 Hartford Tpke.,,Vernon,CT,6066
42.34912,-71.785347,,Point,Pucci Jewelers,205 West Boylston St.,,W. Boylston,MA,1583
41.440947,-71.489402,,Point,Bartone Jewelers,20 East Main St.,,Wakefield,RI,2879
41.440944,-71.496035,,Point,The Purple Cow,205 Main St.,,Wakefield,RI,2879
41.734378,-71.435108,,Point,Chief’s Jewelers,1724 Post Rd.,,Warwick,RI,2888
41.733976,-71.449046,,Point,National Gold,55 Access Way,,Warwick,RI,2886
42.049289,-71.882252,,Point,Paradise Jewelers,262 Main St.,,Webster,MA,1570
41.665408,-70.164969,,Point,Smith’s Time Service,467 Main St.,,West Dennis,MA,2670
42.56484,-71.425066,,Point,Diamond Jewelers,190 Littleton Rd.,,Westford,MA,1886
41.704354,-72.703064,,Point,Turgeon Jewelers,1841 Berlin Tpke.,,Wethersfield,CT,6109
42.194211,-70.920825,,Point,Harts,1356 Washington St.,,Weymouth,MA,2189
42.080612,-70.935932,,Point,Menards Jewelry,31 South Ave.,,Whitman,MA,2382
41.56837,-71.453122,,Point,Gold Lady,30 Phillips St.,,Wickford,RI,2852
42.680912,-72.047729,,Point,Patties,15 Central St.,,Winchendon,MA,1475
42.452381,-71.137077,,Point,Simms II,550 Main St.,,Winchester,MA,1890
42.806506,-71.293675,,Point,Clifford Jewelers,Clifford Jewelers,,Windham,NH,3087
42.468521,-71.17831,,Point,Musto Jewelers,186 Cambridge St.,,Woburn,MA,1801
42.199397,-71.429786,,Point,HOLLISTON JEWELERS,804 washington,,Holliston,MA,1746